{"type": "FeatureCollection", "features": [ {"type": "Feature", "properties": {"norad_id": 66737, "name": "FLOCK 4H-34", "group": "last-30-days", "lat": 61.19299393929918, "lon": -95.25440160006596, "alt_km": 505.03293774310805, "timestamp": "2025-12-25T09:48:51.004877+00:00", "meta": {"OBJECT_NAME": "FLOCK 4H-34", "OBJECT_ID": "2025-276BZ", "EPOCH": "2025-12-25T02:58:10.658208", "MEAN_MOTION": 15.18198766, "ECCENTRICITY": 3.72e-05, "INCLINATION": 97.4434, "RA_OF_ASC_NODE": 70.7116, "ARG_OF_PERICENTER": 105.79, "MEAN_ANOMALY": 254.3375, "EPHEMERIS_TYPE": 0, "CLASSIFICATION_TYPE": "U", "NORAD_CAT_ID": 66737, "ELEMENT_SET_NO": 999, "REV_AT_EPOCH": 325, "BSTAR": 0.002353, "MEAN_MOTION_DOT": 0.00048328, "MEAN_MOTION_DDOT": 0}, "tle": {"line1": "1 66737U 25276BZ  25359.12373447  .00048328  00000+0  23530-2 0  9995", "line2": "2 66737  97.4434  70.7116 0000372 105.7900 254.3375 15.18198766  3259"}}, "geometry": {"type": "Point", "coordinates": [-95.25440160006596, 61.19299393929918]}}, {"type": "Feature", "properties": {"norad_id": 66738, "name": "FLOCK 4H-35", "group": "last-30-days", "lat": 51.68752661999853, "lon": -99.49815837362442, "alt_km": 504.55832117945283, "timestamp": "2025-12-25T09:48:51.004887+00:00", "meta": {"OBJECT_NAME": "FLOCK 4H-35", "OBJECT_ID": "2025-276CA", "EPOCH": "2025-12-25T02:55:37.318944", "MEAN_MOTION": 15.18275635, "ECCENTRICITY": 0.0002587, "INCLINATION": 97.4398, "RA_OF_ASC_NODE": 70.6998, "ARG_OF_PERICENTER": 142.8061, "MEAN_ANOMALY": 217.3352, "EPHEMERIS_TYPE": 0, "CLASSIFICATION_TYPE": "U", "NORAD_CAT_ID": 66738, "ELEMENT_SET_NO": 999, "REV_AT_EPOCH": 329, "BSTAR": 0.00048925, "MEAN_MOTION_DOT": 9.966e-05, "MEAN_MOTION_DDOT": 0}, "tle": {"line1": "1 66738U 25276CA  25359.12195971  .00009966  00000+0  48925-3 0  9991", "line2": "2 66738  97.4398  70.6998 0002587 142.8061 217.3352 15.18275635  3295"}}, "geometry": {"type": "Point", "coordinates": [-99.49815837362442, 51.68752661999853]}}, {"type": "Feature", "properties": {"norad_id": 66739, "name": "FLOCK 4H-36", "group": "last-30-days", "lat": 74.83944901851635, "lon": -80.15574232420191, "alt_km": 504.1174688817173, "timestamp": "2025-12-25T09:48:51.004901+00:00", "meta": {"OBJECT_NAME": "FLOCK 4H-36", "OBJECT_ID": "2025-276CB", "EPOCH": "2025-12-25T01:27:03.438144", "MEAN_MOTION": 15.18019737, "ECCENTRICITY": 0.0002578, "INCLINATION": 97.4446, "RA_OF_ASC_NODE": 70.6468, "ARG_OF_PERICENTER": 175.1813, "MEAN_ANOMALY": 184.9446, "EPHEMERIS_TYPE": 0, "CLASSIFICATION_TYPE": "U", "NORAD_CAT_ID": 66739, "ELEMENT_SET_NO": 999, "REV_AT_EPOCH": 399, "BSTAR": 0.00036311, "MEAN_MOTION_DOT": 7.322e-05, "MEAN_MOTION_DDOT": 0}, "tle": {"line1": "1 66739U 25276CB  25359.06045646  .00007322  00000+0  36311-3 0  9998", "line2": "2 66739  97.4446  70.6468 0002578 175.1813 184.9446 15.18019737  3995"}}, "geometry": {"type": "Point", "coordinates": [-80.15574232420191, 74.83944901851635]}}, {"type": "Feature", "properties": {"norad_id": 66740, "name": "TRANSPORTER-15CC", "group": "last-30-days", "lat": 72.90268423802272, "lon": 45.82394758537262, "alt_km": 506.9487897143663, "timestamp": "2025-12-25T09:48:51.004911+00:00", "meta": {"OBJECT_NAME": "TRANSPORTER-15CC", "OBJECT_ID": "2025-276CC", "EPOCH": "2025-12-25T03:09:27.132192", "MEAN_MOTION": 15.17748965, "ECCENTRICITY": 0.0002181, "INCLINATION": 97.4407, "RA_OF_ASC_NODE": 70.6949, "ARG_OF_PERICENTER": 225.4206, "MEAN_ANOMALY": 134.685, "EPHEMERIS_TYPE": 0, "CLASSIFICATION_TYPE": "U", "NORAD_CAT_ID": 66740, "ELEMENT_SET_NO": 999, "REV_AT_EPOCH": 400, "BSTAR": 0.00054275, "MEAN_MOTION_DOT": 0.00010898, "MEAN_MOTION_DDOT": 0}, "tle": {"line1": "1 66740U 25276CC  25359.13156403  .00010898  00000+0  54275-3 0  9993", "line2": "2 66740  97.4407  70.6949 0002181 225.4206 134.6850 15.17748965  4008"}}, "geometry": {"type": "Point", "coordinates": [45.82394758537262, 72.90268423802272]}}, {"type": "Feature", "properties": {"norad_id": 66741, "name": "TRANSPORTER-15CD", "group": "last-30-days", "lat": 67.18600824412549, "lon": 52.8563357855286, "alt_km": 507.08692001334293, "timestamp": "2025-12-25T09:48:51.004921+00:00", "meta": {"OBJECT_NAME": "TRANSPORTER-15CD", "OBJECT_ID": "2025-276CD", "EPOCH": "2025-12-24T22:26:13.477344", "MEAN_MOTION": 15.17640949, "ECCENTRICITY": 0.000114, "INCLINATION": 97.4404, "RA_OF_ASC_NODE": 70.4905, "ARG_OF_PERICENTER": 216.246, "MEAN_ANOMALY": 143.8696, "EPHEMERIS_TYPE": 0, "CLASSIFICATION_TYPE": "U", "NORAD_CAT_ID": 66741, "ELEMENT_SET_NO": 999, "REV_AT_EPOCH": 397, "BSTAR": 0.00032228, "MEAN_MOTION_DOT": 6.42e-05, "MEAN_MOTION_DDOT": 0}, "tle": {"line1": "1 66741U 25276CD  25358.93487821  .00006420  00000+0  32228-3 0  9992", "line2": "2 66741  97.4404  70.4905 0001140 216.2460 143.8696 15.17640949  3978"}}, "geometry": {"type": "Point", "coordinates": [52.8563357855286, 67.18600824412549]}}, {"type": "Feature", "properties": {"norad_id": 66742, "name": "TRANSPORTER-15CE", "group": "last-30-days", "lat": 75.46367161390378, "lon": 40.69477978784527, "alt_km": 505.78773834752246, "timestamp": "2025-12-25T09:48:51.004931+00:00", "meta": {"OBJECT_NAME": "TRANSPORTER-15CE", "OBJECT_ID": "2025-276CE", "EPOCH": "2025-12-25T03:08:40.960032", "MEAN_MOTION": 15.17729922, "ECCENTRICITY": 0.0001833, "INCLINATION": 97.4399, "RA_OF_ASC_NODE": 70.6847, "ARG_OF_PERICENTER": 179.683, "MEAN_ANOMALY": 180.4406, "EPHEMERIS_TYPE": 0, "CLASSIFICATION_TYPE": "U", "NORAD_CAT_ID": 66742, "ELEMENT_SET_NO": 999, "REV_AT_EPOCH": 400, "BSTAR": 0.00048374, "MEAN_MOTION_DOT": 9.699e-05, "MEAN_MOTION_DDOT": 0}, "tle": {"line1": "1 66742U 25276CE  25359.13102963  .00009699  00000+0  48374-3 0  9997", "line2": "2 66742  97.4399  70.6847 0001833 179.6830 180.4406 15.17729922  4001"}}, "geometry": {"type": "Point", "coordinates": [40.69477978784527, 75.46367161390378]}}, {"type": "Feature", "properties": {"norad_id": 66743, "name": "TRANSPORTER-15CF", "group": "last-30-days", "lat": 53.88804550512045, "lon": 60.63307076275422, "alt_km": 509.3972718680334, "timestamp": "2025-12-25T09:48:51.004943+00:00", "meta": {"OBJECT_NAME": "TRANSPORTER-15CF", "OBJECT_ID": "2025-276CF", "EPOCH": "2025-12-24T17:44:58.609536", "MEAN_MOTION": 15.17443777, "ECCENTRICITY": 0.00025269, "INCLINATION": 97.4332, "RA_OF_ASC_NODE": 70.2853, "ARG_OF_PERICENTER": 263.2405, "MEAN_ANOMALY": 96.8541, "EPHEMERIS_TYPE": 0, "CLASSIFICATION_TYPE": "U", "NORAD_CAT_ID": 66743, "ELEMENT_SET_NO": 999, "REV_AT_EPOCH": 394, "BSTAR": 0.008927038, "MEAN_MOTION_DOT": 0.00182978, "MEAN_MOTION_DDOT": 0}, "tle": {"line1": "1 66743U 25276CF  25358.73956724  .00182978  00000+0  89270-2 0  9996", "line2": "2 66743  97.4332  70.2853 0002526 263.2405  96.8541 15.17443777  3943"}}, "geometry": {"type": "Point", "coordinates": [60.63307076275422, 53.88804550512045]}}, {"type": "Feature", "properties": {"norad_id": 66744, "name": "TRANSPORTER-15CG", "group": "last-30-days", "lat": 73.80786728702611, "lon": 44.39331172280553, "alt_km": 515.9403995759794, "timestamp": "2025-12-25T09:48:51.004953+00:00", "meta": {"OBJECT_NAME": "TRANSPORTER-15CG", "OBJECT_ID": "2025-276CG", "EPOCH": "2025-12-25T03:09:31.796064", "MEAN_MOTION": 15.19341003, "ECCENTRICITY": 0.002432, "INCLINATION": 97.3868, "RA_OF_ASC_NODE": 70.659, "ARG_OF_PERICENTER": 231.5349, "MEAN_ANOMALY": 128.3704, "EPHEMERIS_TYPE": 0, "CLASSIFICATION_TYPE": "U", "NORAD_CAT_ID": 66744, "ELEMENT_SET_NO": 999, "REV_AT_EPOCH": 400, "BSTAR": 0.00064815, "MEAN_MOTION_DOT": 0.00013749, "MEAN_MOTION_DDOT": 0}, "tle": {"line1": "1 66744U 25276CG  25359.13161801  .00013749  00000+0  64815-3 0  9994", "line2": "2 66744  97.3868  70.6590 0024320 231.5349 128.3704 15.19341003  4001"}}, "geometry": {"type": "Point", "coordinates": [44.39331172280553, 73.80786728702611]}}, {"type": "Feature", "properties": {"norad_id": 66745, "name": "TRANSPORTER-15CH", "group": "last-30-days", "lat": 52.71372229855926, "lon": 61.067698975714194, "alt_km": 509.428728764422, "timestamp": "2025-12-25T09:48:51.004963+00:00", "meta": {"OBJECT_NAME": "TRANSPORTER-15CH", "OBJECT_ID": "2025-276CH", "EPOCH": "2025-12-25T03:14:57.016896", "MEAN_MOTION": 15.1740679, "ECCENTRICITY": 0.0001208, "INCLINATION": 97.4405, "RA_OF_ASC_NODE": 70.682, "ARG_OF_PERICENTER": 194.3768, "MEAN_ANOMALY": 165.7431, "EPHEMERIS_TYPE": 0, "CLASSIFICATION_TYPE": "U", "NORAD_CAT_ID": 66745, "ELEMENT_SET_NO": 999, "REV_AT_EPOCH": 400, "BSTAR": 0.00015456, "MEAN_MOTION_DOT": 3.023e-05, "MEAN_MOTION_DDOT": 0}, "tle": {"line1": "1 66745U 25276CH  25359.13538214  .00003023  00000+0  15456-3 0  9992", "line2": "2 66745  97.4405  70.6820 0001208 194.3768 165.7431 15.17406790  4002"}}, "geometry": {"type": "Point", "coordinates": [61.067698975714194, 52.71372229855926]}}, {"type": "Feature", "properties": {"norad_id": 66746, "name": "TRANSPORTER-15CJ", "group": "last-30-days", "lat": 64.82988526752666, "lon": 54.96958037445168, "alt_km": 507.13015592239117, "timestamp": "2025-12-25T09:48:51.004973+00:00", "meta": {"OBJECT_NAME": "TRANSPORTER-15CJ", "OBJECT_ID": "2025-276CJ", "EPOCH": "2025-12-24T17:43:08.358816", "MEAN_MOTION": 15.194073, "ECCENTRICITY": 0.0013374, "INCLINATION": 97.3836, "RA_OF_ASC_NODE": 70.3325, "ARG_OF_PERICENTER": 197.9255, "MEAN_ANOMALY": 162.151, "EPHEMERIS_TYPE": 0, "CLASSIFICATION_TYPE": "U", "NORAD_CAT_ID": 66746, "ELEMENT_SET_NO": 999, "REV_AT_EPOCH": 394, "BSTAR": 0.0009252, "MEAN_MOTION_DOT": 0.00019602, "MEAN_MOTION_DDOT": 0}, "tle": {"line1": "1 66746U 25276CJ  25358.73829119  .00019602  00000+0  92520-3 0  9992", "line2": "2 66746  97.3836  70.3325 0013374 197.9255 162.1510 15.19407300  3945"}}, "geometry": {"type": "Point", "coordinates": [54.96958037445168, 64.82988526752666]}}]}